{"type": "FeatureCollection", "features": [ {"type": "Feature", "properties": {"norad_id": 36045, "name": "COSMOS 2251 DEB", "group": "cosmos-2251-debris", "lat": 49.71811999725298, "lon": -137.40645621913748, "alt_km": 634.832259686511, "timestamp": "2025-12-10T21:43:22.488126+00:00", "meta": {"OBJECT_NAME": "COSMOS 2251 DEB", "OBJECT_ID": "1993-036AXG", "EPOCH": "2025-12-09T12:28:41.789568", "MEAN_MOTION": 14.69724058, "ECCENTRICITY": 0.00485126, "INCLINATION": 73.764, "RA_OF_ASC_NODE": 65.432, "ARG_OF_PERICENTER": 80.3147, "MEAN_ANOMALY": 280.3498, "EPHEMERIS_TYPE": 0, "CLASSIFICATION_TYPE": "U", "NORAD_CAT_ID": 36045, "ELEMENT_SET_NO": 999, "REV_AT_EPOCH": 8341, "BSTAR": 0.003329583, "MEAN_MOTION_DOT": 0.00020233, "MEAN_MOTION_DDOT": 0}, "tle": {"line1": "1 36045U 93036AXG 25343.51992812  .00020233  00000+0  33296-2 0  9997", "line2": "2 36045  73.7640  65.4320 0048512  80.3147 280.3498 14.69724058 83416"}}, "geometry": {"type": "Point", "coordinates": [-137.40645621913748, 49.71811999725298]}}, {"type": "Feature", "properties": {"norad_id": 36046, "name": "COSMOS 2251 DEB", "group": "cosmos-2251-debris", "lat": -36.58823838803122, "lon": 112.31948239827771, "alt_km": 716.5794661334676, "timestamp": "2025-12-10T21:43:22.488136+00:00", "meta": {"OBJECT_NAME": "COSMOS 2251 DEB", "OBJECT_ID": "1993-036AXH", "EPOCH": "2025-12-07T14:53:37.140000", "MEAN_MOTION": 14.65217113, "ECCENTRICITY": 0.00554066, "INCLINATION": 74.0172, "RA_OF_ASC_NODE": 286.36, "ARG_OF_PERICENTER": 73.7608, "MEAN_ANOMALY": 105.7765, "EPHEMERIS_TYPE": 0, "CLASSIFICATION_TYPE": "U", "NORAD_CAT_ID": 36046, "ELEMENT_SET_NO": 999, "REV_AT_EPOCH": 63928, "BSTAR": 0.0010874052, "MEAN_MOTION_DOT": 5.963e-05, "MEAN_MOTION_DDOT": 0}, "tle": {"line1": "1 36046U 93036AXH 25341.62056875  .00005963  00000+0  10874-2 0  9998", "line2": "2 36046  74.0172 286.3600 0055406  73.7608 105.7765 14.65217113639288"}}, "geometry": {"type": "Point", "coordinates": [112.31948239827771, -36.58823838803122]}}, {"type": "Feature", "properties": {"norad_id": 36047, "name": "COSMOS 2251 DEB", "group": "cosmos-2251-debris", "lat": -49.83988985785738, "lon": -41.96626370809117, "alt_km": 583.2915239890817, "timestamp": "2025-12-10T21:43:22.488151+00:00", "meta": {"OBJECT_NAME": "COSMOS 2251 DEB", "OBJECT_ID": "1993-036AXJ", "EPOCH": "2025-12-09T17:03:49.507488", "MEAN_MOTION": 14.95728614, "ECCENTRICITY": 0.00081605, "INCLINATION": 74.0362, "RA_OF_ASC_NODE": 340.2728, "ARG_OF_PERICENTER": 6.5985, "MEAN_ANOMALY": 353.5306, "EPHEMERIS_TYPE": 0, "CLASSIFICATION_TYPE": "U", "NORAD_CAT_ID": 36047, "ELEMENT_SET_NO": 999, "REV_AT_EPOCH": 65894, "BSTAR": 0.0027577472, "MEAN_MOTION_DOT": 0.00030846, "MEAN_MOTION_DDOT": 0}, "tle": {"line1": "1 36047U 93036AXJ 25343.71098967  .00030846  00000+0  27577-2 0  9995", "line2": "2 36047  74.0362 340.2728 0008160   6.5985 353.5306 14.95728614658942"}}, "geometry": {"type": "Point", "coordinates": [-41.96626370809117, -49.83988985785738]}}, {"type": "Feature", "properties": {"norad_id": 36048, "name": "COSMOS 2251 DEB", "group": "cosmos-2251-debris", "lat": -70.95704009152323, "lon": 178.5690723416312, "alt_km": 773.6953092444719, "timestamp": "2025-12-10T21:43:22.488161+00:00", "meta": {"OBJECT_NAME": "COSMOS 2251 DEB", "OBJECT_ID": "1993-036AXK", "EPOCH": "2025-12-10T07:51:23.656896", "MEAN_MOTION": 14.3784538, "ECCENTRICITY": 0.0026514, "INCLINATION": 74.0571, "RA_OF_ASC_NODE": 303.7212, "ARG_OF_PERICENTER": 354.2337, "MEAN_ANOMALY": 156.0655, "EPHEMERIS_TYPE": 0, "CLASSIFICATION_TYPE": "U", "NORAD_CAT_ID": 36048, "ELEMENT_SET_NO": 999, "REV_AT_EPOCH": 85467, "BSTAR": 0.00048763, "MEAN_MOTION_DOT": 1.45e-05, "MEAN_MOTION_DDOT": 0}, "tle": {"line1": "1 36048U 93036AXK 25344.32735714  .00001450  00000+0  48763-3 0  9992", "line2": "2 36048  74.0571 303.7212 0026514 354.2337 156.0655 14.37845380854671"}}, "geometry": {"type": "Point", "coordinates": [178.5690723416312, -70.95704009152323]}}, {"type": "Feature", "properties": {"norad_id": 36049, "name": "COSMOS 2251 DEB", "group": "cosmos-2251-debris", "lat": -24.59167090514876, "lon": -49.77328678220317, "alt_km": 683.9239169362709, "timestamp": "2025-12-10T21:43:22.488172+00:00", "meta": {"OBJECT_NAME": "COSMOS 2251 DEB", "OBJECT_ID": "1993-036AXL", "EPOCH": "2025-12-10T15:51:32.776992", "MEAN_MOTION": 14.62096087, "ECCENTRICITY": 0.00108955, "INCLINATION": 74.0301, "RA_OF_ASC_NODE": 123.1637, "ARG_OF_PERICENTER": 209.0948, "MEAN_ANOMALY": 150.9613, "EPHEMERIS_TYPE": 0, "CLASSIFICATION_TYPE": "U", "NORAD_CAT_ID": 36049, "ELEMENT_SET_NO": 999, "REV_AT_EPOCH": 85334, "BSTAR": 0.0024713672, "MEAN_MOTION_DOT": 0.00012422, "MEAN_MOTION_DDOT": 0}, "tle": {"line1": "1 36049U 93036AXL 25344.66079603  .00012422  00000+0  24714-2 0  9998", "line2": "2 36049  74.0301 123.1637 0010895 209.0948 150.9613 14.62096087853348"}}, "geometry": {"type": "Point", "coordinates": [-49.77328678220317, -24.59167090514876]}}, {"type": "Feature", "properties": {"norad_id": 36050, "name": "COSMOS 2251 DEB", "group": "cosmos-2251-debris", "lat": 20.25353896306823, "lon": -156.17374627002764, "alt_km": 577.3817747953808, "timestamp": "2025-12-10T21:43:22.488182+00:00", "meta": {"OBJECT_NAME": "COSMOS 2251 DEB", "OBJECT_ID": "1993-036AXM", "EPOCH": "2025-12-10T07:13:56.773056", "MEAN_MOTION": 15.00978663, "ECCENTRICITY": 0.0088905, "INCLINATION": 74.0317, "RA_OF_ASC_NODE": 198.9901, "ARG_OF_PERICENTER": 279.1661, "MEAN_ANOMALY": 79.9477, "EPHEMERIS_TYPE": 0, "CLASSIFICATION_TYPE": "U", "NORAD_CAT_ID": 36050, "ELEMENT_SET_NO": 999, "REV_AT_EPOCH": 66998, "BSTAR": 0.00072759, "MEAN_MOTION_DOT": 0.00010072, "MEAN_MOTION_DDOT": 0}, "tle": {"line1": "1 36050U 93036AXM 25344.30135154  .00010072  00000+0  72759-3 0  9997", "line2": "2 36050  74.0317 198.9901 0088905 279.1661  79.9477 15.00978663669983"}}, "geometry": {"type": "Point", "coordinates": [-156.17374627002764, 20.25353896306823]}}, {"type": "Feature", "properties": {"norad_id": 36053, "name": "COSMOS 2251 DEB", "group": "cosmos-2251-debris", "lat": -35.16230346901831, "lon": -12.030973406382943, "alt_km": 716.4549224934763, "timestamp": "2025-12-10T21:43:22.488218+00:00", "meta": {"OBJECT_NAME": "COSMOS 2251 DEB", "OBJECT_ID": "1993-036AXQ", "EPOCH": "2025-12-09T11:46:46.363296", "MEAN_MOTION": 14.57102394, "ECCENTRICITY": 0.00328266, "INCLINATION": 73.8711, "RA_OF_ASC_NODE": 158.9194, "ARG_OF_PERICENTER": 109.1774, "MEAN_ANOMALY": 251.2947, "EPHEMERIS_TYPE": 0, "CLASSIFICATION_TYPE": "U", "NORAD_CAT_ID": 36053, "ELEMENT_SET_NO": 999, "REV_AT_EPOCH": 87397, "BSTAR": 0.0022318191, "MEAN_MOTION_DOT": 0.00010116, "MEAN_MOTION_DDOT": 0}, "tle": {"line1": "1 36053U 93036AXQ 25343.49081439  .00010116  00000+0  22318-2 0  9999", "line2": "2 36053  73.8711 158.9194 0032826 109.1774 251.2947 14.57102394873973"}}, "geometry": {"type": "Point", "coordinates": [-12.030973406382943, -35.16230346901831]}}, {"type": "Feature", "properties": {"norad_id": 36058, "name": "COSMOS 2251 DEB", "group": "cosmos-2251-debris", "lat": -25.975316147061104, "lon": 28.9321524171841, "alt_km": 732.7566818051928, "timestamp": "2025-12-10T21:43:22.488229+00:00", "meta": {"OBJECT_NAME": "COSMOS 2251 DEB", "OBJECT_ID": "1993-036AXV", "EPOCH": "2025-12-09T21:09:28.031616", "MEAN_MOTION": 14.58669067, "ECCENTRICITY": 0.00447805, "INCLINATION": 74.0233, "RA_OF_ASC_NODE": 38.9054, "ARG_OF_PERICENTER": 173.9779, "MEAN_ANOMALY": 186.1934, "EPHEMERIS_TYPE": 0, "CLASSIFICATION_TYPE": "U", "NORAD_CAT_ID": 36058, "ELEMENT_SET_NO": 999, "REV_AT_EPOCH": 66069, "BSTAR": 0.00079291916, "MEAN_MOTION_DOT": 3.72e-05, "MEAN_MOTION_DDOT": 0}, "tle": {"line1": "1 36058U 93036AXV 25343.88157444  .00003720  00000+0  79292-3 0  9994", "line2": "2 36058  74.0233  38.9054 0044780 173.9779 186.1934 14.58669067660699"}}, "geometry": {"type": "Point", "coordinates": [28.9321524171841, -25.975316147061104]}}, {"type": "Feature", "properties": {"norad_id": 36060, "name": "COSMOS 2251 DEB", "group": "cosmos-2251-debris", "lat": -13.854737789665368, "lon": -126.08113712019511, "alt_km": 745.5199789802964, "timestamp": "2025-12-10T21:43:22.488240+00:00", "meta": {"OBJECT_NAME": "COSMOS 2251 DEB", "OBJECT_ID": "1993-036AXX", "EPOCH": "2025-12-09T10:49:25.276800", "MEAN_MOTION": 14.41988994, "ECCENTRICITY": 0.00151666, "INCLINATION": 74.0292, "RA_OF_ASC_NODE": 240.6647, "ARG_OF_PERICENTER": 338.0669, "MEAN_ANOMALY": 21.9836, "EPHEMERIS_TYPE": 0, "CLASSIFICATION_TYPE": "U", "NORAD_CAT_ID": 36060, "ELEMENT_SET_NO": 999, "REV_AT_EPOCH": 84962, "BSTAR": 0.00059597173, "MEAN_MOTION_DOT": 1.931e-05, "MEAN_MOTION_DDOT": 0}, "tle": {"line1": "1 36060U 93036AXX 25343.45098700  .00001931  00000+0  59597-3 0  9997", "line2": "2 36060  74.0292 240.6647 0015166 338.0669  21.9836 14.41988994849629"}}, "geometry": {"type": "Point", "coordinates": [-126.08113712019511, -13.854737789665368]}}, {"type": "Feature", "properties": {"norad_id": 36061, "name": "COSMOS 2251 DEB", "group": "cosmos-2251-debris", "lat": -40.29078066891122, "lon": -162.82375831627394, "alt_km": 802.5240663975628, "timestamp": "2025-12-10T21:43:22.488250+00:00", "meta": {"OBJECT_NAME": "COSMOS 2251 DEB", "OBJECT_ID": "1993-036AXY", "EPOCH": "2025-12-08T08:24:20.190816", "MEAN_MOTION": 14.33698686, "ECCENTRICITY": 0.00368149, "INCLINATION": 74.0243, "RA_OF_ASC_NODE": 7.7948, "ARG_OF_PERICENTER": 97.1574, "MEAN_ANOMALY": 263.3766, "EPHEMERIS_TYPE": 0, "CLASSIFICATION_TYPE": "U", "NORAD_CAT_ID": 36061, "ELEMENT_SET_NO": 999, "REV_AT_EPOCH": 65041, "BSTAR": 0.00050814435, "MEAN_MOTION_DOT": 1.395e-05, "MEAN_MOTION_DDOT": 0}, "tle": {"line1": "1 36061U 93036AXY 25342.35023369  .00001395  00000+0  50814-3 0  9992", "line2": "2 36061  74.0243   7.7948 0036814  97.1574 263.3766 14.33698686650411"}}, "geometry": {"type": "Point", "coordinates": [-162.82375831627394, -40.29078066891122]}}]}